NORAD_CAT_ID,OBJECT_NAME,OBJECT_TYPE,EPOCH,MEAN_MOTION,ECCENTRICITY,INCLINATION,RA_OF_ASC_NODE,ARG_OF_PERICENTER,MEAN_ANOMALY,BSTAR,MEAN_MOTION_DOT,MEAN_MOTION_DDOT,TLE_LINE0,TLE_LINE1,TLE_LINE2,SEMIMAJOR_AXIS,PERIOD,APOGEE,PERIGEE,DECAYED
55398.0,STARLINK-5275,PAYLOAD,2023-12-27 21:11:32,14.98323839,0.0002545,70.0,288.5811,263.4559,96.631,3.5677e-05,3.33e-06,0.0,0 STARLINK-5275,1 55398U 23014H   23361.88301811  .00000333  00000-0  35677-4 0  9996,2 55398  70.0000 288.5811 0002545 263.4559  96.6310 14.98323839 51801,6950.212,96.107,573.846,570.308,0.0
55398.0,STARLINK-5275,PAYLOAD,2023-12-28 03:36:05,14.98322635,0.0002512,70.0003,287.9078,263.9353,96.152,4.0311e-05,3.88e-06,0.0,0 STARLINK-5275,1 55398U 23014H   23362.15005971  .00000388  00000-0  40311-4 0  9996,2 55398  70.0003 287.9078 0002512 263.9353  96.1520 14.98322635 50904,6950.216,96.107,573.827,570.335,0.0
55398.0,STARLINK-5275,PAYLOAD,2023-12-28 05:12:13,14.98323491,0.0002529,70.0002,287.7391,267.8004,92.2865,4.7967e-05,4.79e-06,0.0,0 STARLINK-5275,1 55398U 23014H   23362.21681949  .00000479  00000-0  47967-4 0  9993,2 55398  70.0002 287.7391 0002529 267.8004  92.2865 14.98323491 51858,6950.213,96.107,573.836,570.32,0.0
55398.0,STARLINK-5275,PAYLOAD,2023-12-28 19:37:25,14.98334551,0.0002679,69.9999,286.2246,268.1012,91.984,-1.0312e-05,-2.16e-06,0.0,0 STARLINK-5275,1 55398U 23014H   23362.81765428 -.00000216  00000-0 -10312-4 0  9999,2 55398  69.9999 286.2246 0002679 268.1012  91.9840 14.98334551 51007,6950.179,96.107,573.906,570.182,0.0
55398.0,STARLINK-5275,PAYLOAD,2023-12-28 21:13:33,14.9833459,0.0002695,69.9999,286.0561,267.0927,92.9923,-1.3005e-05,-2.48e-06,0.0,0 STARLINK-5275,1 55398U 23014H   23362.88441400 -.00000248  00000-0 -13005-4 0  9994,2 55398  69.9999 286.0561 0002695 267.0927  92.9923 14.98334590 51956,6950.179,96.107,573.917,570.171,0.0
55398.0,STARLINK-5275,PAYLOAD,2023-12-29 05:14:13,14.98335461,0.0002692,69.9999,285.2145,266.5122,93.573,1.9428e-07,-9.1e-07,0.0,0 STARLINK-5275,1 55398U 23014H   23363.21821220 -.00000091  00000-0  19428-6 0  9996,2 55398  69.9999 285.2145 0002692 266.5122  93.5730 14.98335461 52001,6950.176,96.107,573.912,570.17,0.0
55398.0,STARLINK-5275,PAYLOAD,2023-12-29 19:39:26,14.98330919,0.0002773,69.9997,283.6995,266.4874,93.5968,3.025e-05,2.68e-06,0.0,0 STARLINK-5275,1 55398U 23014H   23363.81905290  .00000268  00000-0  30250-4 0  9991,2 55398  69.9997 283.6995 0002773 266.4874  93.5968 14.98330919 51158,6950.19,96.107,573.982,570.128,0.0
55398.0,STARLINK-5275,PAYLOAD,2023-12-29 21:15:34,14.98331604,0.0002764,69.9998,283.5308,267.3453,92.739,3.8063e-05,3.61e-06,0.0,0 STARLINK-5275,1 55398U 23014H   23363.88581219  .00000361  00000-0  38063-4 0  9993,2 55398  69.9998 283.5308 0002764 267.3453  92.7390 14.98331604 52107,6950.188,96.107,573.974,570.132,0.0
55398.0,STARLINK-5275,PAYLOAD,2023-12-30 05:16:14,14.98336354,0.0002662,69.9999,282.6888,267.0123,93.0731,8.403e-05,9.1e-06,0.0,0 STARLINK-5275,1 55398U 23014H   23364.21960710  .00000910  00000-0  84030-4 0  9993,2 55398  69.9999 282.6888 0002662 267.0123  93.0731 14.98336354 51210,6950.173,96.107,573.888,570.188,0.0
55398.0,STARLINK-5275,PAYLOAD,2023-12-30 19:41:27,14.98325169,0.0002105,70.0022,281.1733,245.0092,115.0848,3.0371e-05,2.7e-06,0.0,0 STARLINK-5275,1 55398U 23014H   23364.82045428  .00000270  00000-0  30371-4 0  9998,2 55398  70.0022 281.1733 0002105 245.0092 115.0848 14.98325169 51302,6950.208,96.107,573.536,570.61,0.0
55398.0,STARLINK-5275,PAYLOAD,2023-12-30 22:53:43,14.98326388,0.0002721,69.9998,280.8373,261.6902,98.3949,-6.3347e-05,-8.49e-06,0.0,0 STARLINK-5275,1 55398U 23014H   23364.95397669 -.00000849  00000-0 -63347-4 0  9992,2 55398  69.9998 280.8373 0002721 261.6902  98.3949 14.98326388 52260,6950.204,96.107,573.96,570.178,0.0
55398.0,STARLINK-5275,PAYLOAD,2023-12-31 03:42:08,14.98314369,0.000256,70.0008,280.3327,256.3768,103.7106,7.7101e-05,8.27e-06,0.0,0 STARLINK-5275,1 55398U 23014H   23365.15426122  .00000827  00000-0  77101-4 0  9999,2 55398  70.0008 280.3327 0002560 256.3768 103.7106 14.98314369 51352,6950.241,96.108,573.885,570.327,0.0
55398.0,STARLINK-5275,PAYLOAD,2023-12-31 19:43:27,14.98333373,0.0002893,69.9992,278.6486,262.7864,97.2966,-3.7799e-05,-5.44e-06,0.0,0 STARLINK-5275,1 55398U 23014H   23365.82185138 -.00000544  00000-0 -37799-4 0  9999,2 55398  69.9992 278.6486 0002893 262.7864  97.2966 14.98333373 51452,6950.182,96.107,574.058,570.037,0.0
55398.0,STARLINK-5275,PAYLOAD,2023-12-31 21:19:35,14.98335032,0.0002929,69.9992,278.4804,262.8764,97.2062,-4.0617e-05,-5.78e-06,0.0,0 STARLINK-5275,1 55398U 23014H   23365.88861025 -.00000578  00000-0 -40617-4 0  9991,2 55398  69.9992 278.4804 0002929 262.8764  97.2062 14.98335032 52401,6950.177,96.107,574.078,570.007,0.0
55398.0,STARLINK-5275,PAYLOAD,2024-01-01 03:44:07,14.9833654,0.0002884,69.9992,277.8066,266.2576,93.8253,6.6403e-06,-1.4e-07,0.0,0 STARLINK-5275,1 55398U 23014H   24001.15564738 -.00000014  00000-0  66403-5 0  9996,2 55398  69.9992 277.8066 0002884 266.2576  93.8253 14.98336540 52446,6950.173,96.107,574.042,570.033,0.0
55398.0,STARLINK-5275,PAYLOAD,2024-01-01 19:45:28,14.98328224,0.0002929,69.9991,276.1231,269.1933,90.889,4.317e-05,4.22e-06,0.0,0 STARLINK-5275,1 55398U 23014H   24001.82325067  .00000422  00000-0  43170-4 0  9997,2 55398  69.9991 276.1231 0002929 269.1933  90.8890 14.98328224 51601,6950.198,96.107,574.099,570.028,0.0
55398.0,STARLINK-5275,PAYLOAD,2024-01-01 22:57:44,14.9832805,0.0002866,69.9991,275.7862,266.7672,93.3159,7.4987e-05,8.02e-06,0.0,0 STARLINK-5275,1 55398U 23014H   24001.95676984  .00000802  00000-0  74987-4 0  9990,2 55398  69.9991 275.7862 0002866 266.7672  93.3159 14.98328050 52568,6950.199,96.107,574.056,570.072,0.0
55398.0,STARLINK-5275,PAYLOAD,2024-01-02 03:46:08,14.98331498,0.0002829,69.9994,275.2824,266.6565,93.427,8.2667e-05,8.94e-06,0.0,0 STARLINK-5275,1 55398U 23014H   24002.15704760  .00000894  00000-0  82667-4 0  9992,2 55398  69.9994 275.2824 0002829 266.6565  93.4270 14.98331498 52591,6950.188,96.107,574.019,570.087,0.0
55398.0,STARLINK-5275,PAYLOAD,2024-01-02 19:47:29,14.98331872,0.0002603,69.9999,273.5996,256.3028,103.7841,-1.5359e-05,-2.76e-06,0.0,0 STARLINK-5275,1 55398U 23014H   24002.82464868 -.00000276  00000-0 -15359-4 0  9998,2 55398  69.9999 273.5996 0002603 256.3028 103.7841 14.98331872 51759,6950.187,96.107,573.861,570.243,0.0
55398.0,STARLINK-5275,PAYLOAD,2024-01-02 21:23:37,14.98332609,0.000273,69.9995,273.4307,260.6975,99.3875,-3.8868e-05,-5.57e-06,0.0,0 STARLINK-5275,1 55398U 23014H   24002.89140890 -.00000557  00000-0 -38868-4 0  9993,2 55398  69.9995 273.4307 0002730 260.6975  99.3875 14.98332609 52702,6950.185,96.107,573.947,570.152,0.0
55398.0,STARLINK-5275,PAYLOAD,2024-01-03 03:48:09,14.98331942,0.0002756,69.9994,272.7572,264.8085,95.276,-2.5433e-05,-3.96e-06,0.0,0 STARLINK-5275,1 55398U 23014H   24003.15844884 -.00000396  00000-0 -25433-4 0  9992,2 55398  69.9994 272.7572 0002756 264.8085  95.2760 14.98331942 52744,6950.187,96.107,573.967,570.136,0.0
55398.0,STARLINK-5275,PAYLOAD,2024-01-03 19:49:30,14.9833132,0.0002686,69.9995,271.0747,261.2498,98.8357,-2.2288e-05,-3.59e-06,0.0,0 STARLINK-5275,1 55398U 23014H   24003.82604819 -.00000359  00000-0 -22288-4 0  9992,2 55398  69.9995 271.0747 0002686 261.2498  98.8357 14.98331320 51900,6950.189,96.107,573.921,570.187,0.0
55398.0,STARLINK-5275,PAYLOAD,2024-01-03 21:25:38,14.98331279,0.000269,69.9996,270.9062,261.3067,98.7788,-2.2629e-05,-3.63e-06,0.0,0 STARLINK-5275,1 55398U 23014H   24003.89280814 -.00000363  00000-0 -22629-4 0  9998,2 55398  69.9996 270.9062 0002690 261.3067  98.7788 14.98331279 52852,6950.189,96.107,573.924,570.184,0.0
55398.0,STARLINK-5275,PAYLOAD,2024-01-04 03:50:10,14.98330522,0.0002714,69.9995,270.2331,261.9942,98.0909,-3.0561e-05,-4.58e-06,0.0,0 STARLINK-5275,1 55398U 23014H   24004.15984876 -.00000458  00000-0 -30561-4 0  9996,2 55398  69.9995 270.2331 0002714 261.9942  98.0909 14.98330522 52890,6950.191,96.107,573.943,570.17,0.0
55398.0,STARLINK-5275,PAYLOAD,2024-01-04 19:51:31,14.98331488,0.0002818,69.9991,268.5491,265.5466,94.5371,2.1454e-05,1.63e-06,0.0,0 STARLINK-5275,1 55398U 23014H   24004.82744595  .00000163  00000-0  21454-4 0  9994,2 55398  69.9991 268.5491 0002818 265.5466  94.5371 14.98331488 52053,6950.188,96.107,574.012,570.095,0.0
55398.0,STARLINK-5275,PAYLOAD,2024-01-04 21:27:39,14.98331277,0.0002829,69.9991,268.3807,265.3905,94.6931,1.757e-05,1.17e-06,0.0,0 STARLINK-5275,1 55398U 23014H   24004.89420609  .00000117  00000-0  17570-4 0  9991,2 55398  69.9991 268.3807 0002829 265.3905  94.6931 14.98331277 53005,6950.189,96.107,574.02,570.088,0.0
55398.0,STARLINK-5275,PAYLOAD,2024-01-05 03:52:11,14.98334135,0.0002778,69.999,267.7074,263.8529,96.2313,4.873e-05,4.89e-06,0.0,0 STARLINK-5275,1 55398U 23014H   24005.16124283  .00000489  00000-0  48730-4 0  9995,2 55398  69.9990 267.7074 0002778 263.8529  96.2313 14.98334135 53043,6950.18,96.107,573.976,570.114,0.0
55398.0,STARLINK-5275,PAYLOAD,2024-01-05 21:29:40,14.98320453,0.0002654,69.9992,265.8555,255.6769,104.4095,8.1041e-05,8.74e-06,0.0,0 STARLINK-5275,1 55398U 23014H   24005.89560966  .00000874  00000-0  81041-4 0  9997,2 55398  69.9992 265.8555 0002654 255.6769 104.4095 14.98320453 53155,6950.222,96.108,573.932,570.243,0.0
55398.0,STARLINK-5275,PAYLOAD,2024-01-06 03:54:13,14.98323784,0.0002683,69.9991,265.1829,261.4976,98.5879,-4.1403e-05,-5.87e-06,0.0,0 STARLINK-5275,1 55398U 23014H   24006.16265233 -.00000587  00000-0 -41403-4 0  9998,2 55398  69.9991 265.1829 0002683 261.4976  98.5879 14.98323784 52251,6950.212,96.107,573.942,570.212,0.0
55398.0,STARLINK-5275,PAYLOAD,2024-01-06 19:55:32,14.98359651,0.0002899,69.9989,263.5006,262.7568,97.3262,-0.00046575,-5.65e-05,0.0,0 STARLINK-5275,1 55398U 23014H   24006.83024260 -.00005650  00000-0 -46575-3 0  9995,2 55398  69.9989 263.5006 0002899 262.7568  97.3262 14.98359651 52353,6950.101,96.105,573.981,569.951,0.0
